H1 CPF 01  gfz 2021 02 08 13  5392 tandemx   
H2 1003001  6202 36605    2021 02 08 12 59 42 2021 02 13 00 00 42   120 1 1  0 0 0
H9
10 0 59254  26622.000000  0    6448719.989  -2425328.918    -11962.951
10 0 59254  26742.000000  0    6328026.229  -2569750.811   -914466.978
10 0 59254  26862.000000  0    6094721.410  -2666199.715  -1800889.307
10 0 59254  26982.000000  0    5753834.063  -2711101.358  -2655665.927
10 0 59254  27102.000000  0    5312329.537  -2701894.256  -3463819.427
10 0 59254  27222.000000  0    4778959.239  -2637102.732  -4211223.510
10 0 59254  27342.000000  0    4164078.027  -2516387.583  -4884849.208
10 0 59254  27462.000000  0    3479432.682  -2340572.690  -5472987.673
10 0 59254  27582.000000  0    2737928.916  -2111647.337  -5965444.202
10 0 59254  27702.000000  0    1953384.665  -1832745.724  -6353704.179
10 0 59254  27822.000000  0    1140270.827  -1508103.456  -6631070.833
10 0 59254  27942.000000  0     313444.695  -1142991.668  -6792769.455
10 0 59254  28062.000000  0    -512117.334   -743631.709  -6836020.321
10 0 59254  28182.000000  0   -1321584.703   -317090.913  -6760080.748
10 0 59254  28302.000000  0   -2100533.071    128839.607  -6566256.423
10 0 59254  28422.000000  0   -2835195.222    585783.490  -6257880.407
10 0 59254  28542.000000  0   -3512699.075   1044931.674  -5840262.337
10 0 59254  28662.000000  0   -4121291.920   1497207.499  -5320607.504
10 0 59254  28782.000000  0   -4650547.052   1933441.831  -4707904.288
10 0 59254  28902.000000  0   -5091548.482   2344557.042  -4012780.135
10 0 59254  29022.000000  0   -5437048.876   2721753.726  -3247326.541
10 0 59254  29142.000000  0   -5681598.523   3056697.071  -2424896.915
10 0 59254  29262.000000  0   -5821642.318   3341699.724  -1559878.110
10 0 59254  29382.000000  0   -5855580.231   3569896.154   -667438.622
10 0 59254  29502.000000  0   -5783789.035   3735403.480    236741.013
10 0 59254  29622.000000  0   -5608605.334   3833464.767   1136751.181
10 0 59254  29742.000000  0   -5334266.721   3860569.689   2016742.742
10 0 59254  29862.000000  0   -4966814.149   3814550.228   2861214.733
10 0 59254  29982.000000  0   -4513959.907   3694649.247   3655295.148
10 0 59254  30102.000000  0   -3984922.073   3501559.426   4385009.561
10 0 59254  30222.000000  0   -3390231.523   3237431.625   5037529.710
10 0 59254  30342.000000  0   -2741516.305   2905854.752   5601399.760
10 0 59254  30462.000000  0   -2051267.521   2511805.612   6066734.909
10 0 59254  30582.000000  0   -1332593.458   2061571.026   6425390.265
10 0 59254  30702.000000  0    -598966.415   1562643.803   6671096.046
10 0 59254  30822.000000  0     136029.879   1023595.711   6799560.579
10 0 59254  30942.000000  0     858951.561    453928.873   6808540.886
10 0 59254  31062.000000  0    1556739.612   -136091.444   6697879.013
10 0 59254  31182.000000  0    2216954.730   -735621.041   6469505.297
10 0 59254  31302.000000  0    2827998.833  -1333435.624   6127407.347
10 0 59254  31422.000000  0    3379320.700  -1918140.152   5677565.623
10 0 59254  31542.000000  0    3861601.844  -2478386.668   5127854.245
10 0 59254  31662.000000  0    4266918.465  -3003095.318   4487908.877
10 0 59254  31782.000000  0    4588877.241  -3481676.359   3768963.304
10 0 59254  31902.000000  0    4822722.260  -3904247.574   2983655.294
10 0 59254  32022.000000  0    4965410.500  -4261841.696   2145804.067
10 0 59254  32142.000000  0    5015651.885  -4546598.441   1270163.467
10 0 59254  32262.000000  0    4973913.906  -4751937.258    372156.803
10 0 59254  32382.000000  0    4842390.663  -4872706.398   -532402.281
10 0 59254  32502.000000  0    4624936.980  -4905303.351  -1427597.046
10 0 59254  32622.000000  0    4326968.760  -4847763.741  -2297696.717
10 0 59254  32742.000000  0    3955332.528  -4699816.845  -3127439.863
10 0 59254  32862.000000  0    3518147.714  -4462906.542  -3902306.321
10 0 59254  32982.000000  0    3024626.972  -4140177.985  -4608772.216
10 0 59254  33102.000000  0    2484878.150  -3736430.066  -5234543.296
10 0 59254  33222.000000  0    1909693.489  -3258036.295  -5768760.750
10 0 59254  33342.000000  0    1310333.157  -2712838.261  -6202179.069
10 0 59254  33462.000000  0     698305.070  -2110012.969  -6527316.159
10 0 59254  33582.000000  0      85145.292  -1459914.813  -6738572.058
10 0 59254  33702.000000  0    -517795.587   -773896.831  -6832314.726
10 0 59254  33822.000000  0   -1099556.883    -64114.963  -6806934.849
10 0 59254  33942.000000  0   -1649762.314    656682.309  -6662869.899
10 0 59254  34062.000000  0   -2158800.731   1375376.841  -6402597.077
10 0 59254  34182.000000  0   -2617990.117   2078713.566  -6030595.359
10 0 59254  34302.000000  0   -3019724.481   2753539.475  -5553277.458
10 0 59254  34422.000000  0   -3357600.989   3387047.310  -4978890.872
10 0 59254  34542.000000  0   -3626526.050   3967019.108  -4317387.152
10 0 59254  34662.000000  0   -3822796.577   4482064.738  -3580259.106
10 0 59254  34782.000000  0   -3944153.312   4921849.705  -2780349.056
10 0 59254  34902.000000  0   -3989807.123   5277308.201  -1931631.742
10 0 59254  35022.000000  0   -3960437.495   5540836.855  -1048973.111
10 0 59254  35142.000000  0   -3858160.935   5706464.322   -147867.651
10 0 59254  35262.000000  0   -3686469.228   5769988.430    755839.263
10 0 59254  35382.000000  0   -3450140.502   5729080.073   1646237.856
10 0 59254  35502.000000  0   -3155122.540   5583350.112   2507644.709
10 0 59254  35622.000000  0   -2808391.341   5334374.363   3324888.783
10 0 59254  35742.000000  0   -2417790.840   4985678.713   4083584.539
10 0 59254  35862.000000  0   -1991857.561   4542686.125   4770389.072
10 0 59254  35982.000000  0   -1539634.891   4012626.209   5373238.255
10 0 59254  36102.000000  0   -1070480.400   3404409.393   5881557.702
10 0 59254  36222.000000  0    -593871.907   2728468.965   6286443.711
10 0 59254  36342.000000  0    -119216.547   1996575.477   6580812.971
10 0 59254  36462.000000  0     344333.785   1221628.185   6759520.746
10 0 59254  36582.000000  0     788058.322    417424.796   6819445.518
10 0 59254  36702.000000  0    1203830.398   -401583.898   6759539.334
10 0 59254  36822.000000  0    1584265.495  -1220552.947   6580846.158
10 0 59254  36942.000000  0    1922852.458  -2024511.856   6286484.873
10 0 59254  37062.000000  0    2214065.633  -2798638.262   5881599.145
10 0 59254  37182.000000  0    2453456.547  -3528533.199   5373272.819
10 0 59254  37302.000000  0    2637722.829  -4200492.070   4770411.106
10 0 59254  37422.000000  0    2764753.620  -4801766.802   4083590.507
10 0 59254  37542.000000  0    2833651.414  -5320814.830   3324876.750
10 0 59254  37662.000000  0    2844728.034  -5747528.602   2507614.310
10 0 59254  37782.000000  0    2799474.988  -6073440.630   1646189.618
10 0 59254  37902.000000  0    2700508.284  -6291896.702    755773.418
10 0 59254  38022.000000  0    2551491.075  -6398195.990   -147951.589
10 0 59254  38142.000000  0    2357034.125  -6389693.994  -1049075.814
10 0 59254  38262.000000  0    2122575.879  -6265862.027  -1931753.281
10 0 59254  38382.000000  0    1854246.196  -6028304.484  -2780487.553
10 0 59254  38502.000000  0    1558716.496  -5680733.194  -3580411.321
10 0 59254  38622.000000  0    1243041.731  -5228897.053  -4317548.018
10 0 59254  38742.000000  0     914499.850  -4680475.184  -4979053.979
10 0 59254  38862.000000  0     580430.231  -4044934.790  -5553436.433
10 0 59254  38982.000000  0     248075.384  -3333357.531  -6030744.804
10 0 59254  39102.000000  0     -75570.644  -2558238.375  -6402732.203
10 0 59254  39222.000000  0    -383904.172  -1733261.975  -6662986.232
10 0 59254  39342.000000  0    -670841.683   -873060.843  -6807028.776
10 0 59254  39462.000000  0    -930935.183      7041.441  -6832385.210
10 0 59254  39582.000000  0   -1159472.240    891297.850  -6738621.069
10 0 59254  39702.000000  0   -1352559.243   1763812.053  -6527348.351
10 0 59254  39822.000000  0   -1507186.229   2608816.770  -6202200.558
10 0 59254  39942.000000  0   -1621273.341   3410952.901  -5768778.644
10 0 59254  40062.000000  0   -1693698.045   4155546.536  -5234564.292
10 0 59254  40182.000000  0   -1724302.232   4828878.226  -4608802.609
10 0 59254  40302.000000  0   -1713879.619   5418441.123  -3902352.958
10 0 59254  40422.000000  0   -1664142.408   5913180.746  -3127509.128
10 0 59254  40542.000000  0   -1577667.645   6303711.545  -2297792.542
10 0 59254  40662.000000  0   -1457825.060   6582506.941  -1427720.359
10 0 59254  40782.000000  0   -1308686.864   6744055.392   -532550.944
10 0 59254  40902.000000  0   -1134921.980   6784979.617    371986.235
10 0 59254  41022.000000  0    -941676.409   6704115.819   1269974.432
10 0 59254  41142.000000  0    -734443.451   6502546.229   2145600.932
10 0 59254  41262.000000  0    -518926.684   6183583.637   2983444.625
10 0 59254  41382.000000  0    -300899.727   5752712.658   3768753.822
10 0 59254  41502.000000  0     -86066.968   5217490.033   4487710.709
10 0 59254  41622.000000  0     120072.496   4587402.975   5127681.074
10 0 59254  41742.000000  0     312355.171   3873687.123   5677433.412
10 0 59254  41862.000000  0     486072.463   3089119.627   6127332.183
10 0 59254  41982.000000  0     637077.224   2247781.775   6469502.767
10 0 59254  42102.000000  0     761875.657   1364800.752   6697962.937
10 0 59254  42222.000000  0     857703.061    456073.973   6808721.693
10 0 59254  42342.000000  0     922581.957   -462017.298   6799843.850
10 0 59254  42462.000000  0     955361.693  -1372902.316   6671483.046
10 0 59254  42582.000000  0     955738.853  -2260119.928   6425879.664
10 0 59254  42702.000000  0     924258.196  -3107616.482   6067324.852
10 0 59254  42822.000000  0     862293.471  -3900038.818   5602088.817
10 0 59254  42942.000000  0     772009.646  -4623014.087   5038315.388
10 0 59254  43062.000000  0     656307.562  -5263414.682   4385886.338
99
